[{"OBJECT_NAME":"STARLINK-2102","OBJECT_ID":"2021-005AK","EPOCH":"2026-03-09T06:52:41.677536","MEAN_MOTION":15.30231467,"ECCENTRICITY":0.00012326,"INCLINATION":53.1615,"RA_OF_ASC_NODE":28.4239,"ARG_OF_PERICENTER":80.6038,"MEAN_ANOMALY":279.5102,"EPHEMERIS_TYPE":0,"CLASSIFICATION_TYPE":"U","NORAD_CAT_ID":47382,"ELEMENT_SET_NO":999,"REV_AT_EPOCH":28347,"BSTAR":0.00050860841,"MEAN_MOTION_DOT":0.00014749,"MEAN_MOTION_DDOT":0},{"OBJECT_NAME":"NEXSAT-1","OBJECT_ID":"2024-024E","EPOCH":"2026-03-09T22:47:24.778176","MEAN_MOTION":15.32166372,"ECCENTRICITY":0.00099795,"INCLINATION":97.3124,"RA_OF_ASC_NODE":144.1918,"ARG_OF_PERICENTER":108.5709,"MEAN_ANOMALY":251.6617,"EPHEMERIS_TYPE":0,"CLASSIFICATION_TYPE":"U","NORAD_CAT_ID":58921,"ELEMENT_SET_NO":999,"REV_AT_EPOCH":11669,"BSTAR":0.00031433612,"MEAN_MOTION_DOT":9.702e-5,"MEAN_MOTION_DDOT":0}]
